*******************************************************************************
JPL/HORIZONS              125 Liberatrix (A872 RA)         2020-Jun-20 08:17:36
Rec #:     125 (+COV) Soln.date: 2020-May-20_00:59:14   # obs: 4343 (1872-2020)
 
IAU76/J2000 helio. ecliptic osc. elements (au, days, deg., period=Julian yrs):
 
  EPOCH=  2456062.5 ! 2012-May-15.00 (TDB)         Residual RMS= .33585
   EC= .08025037071630721  QR= 2.523532946962772   TP= 2456178.1992730652
   OM= 169.0639787469435   W=  108.8375588231029   IN= 4.657718733807474
   A= 2.743717275459101    MA= 334.9085553003677   ADIST= 2.963901603955431
   PER= 4.54483            N= .216867776           ANGMOM= .028401949
   DAN= 2.79856            DDN= 2.65719            L= 277.9595315
   B= 4.4077336            MOID= 1.51148999        TP= 2012-Sep-07.6992730652
 
Asteroid physical parameters (km, seconds, rotational period in hours):
   GM= n.a.                RAD= 24.209             ROTPER= 3.968
   H= 8.8                  G= .330                 B-V= .705
                           ALBEDO= .182            STYP= X
 
ASTEROID comments: 
1: soln ref.= JPL#80, OCC=0
2: source=ORB
*******************************************************************************
 
 
*******************************************************************************
Ephemeris / WWW_USER Sat Jun 20 08:17:36 2020 Pasadena, USA      / Horizons
*******************************************************************************
Target body name: 125 Liberatrix (A872 RA)        {source: JPL#80}
Center body name: Solar System Barycenter (0)     {source: DE431}
Center-site name: BODY CENTER
*******************************************************************************
Start time      : A.D. 1969-Jun-28 00:00:00.0000 TDB
Stop  time      : A.D. 2071-May-04 00:00:00.0000 TDB
Step-size       : 7200 minutes
*******************************************************************************
Center geodetic : 0.00000000,0.00000000,0.0000000 {E-lon(deg),Lat(deg),Alt(km)}
Center cylindric: 0.00000000,0.00000000,0.0000000 {E-lon(deg),Dxy(km),Dz(km)}
Center radii    : (undefined)                                                  
Small perturbers: Yes                             {source: SB431-N16}
Output units    : AU-D
Output type     : GEOMETRIC cartesian states
Output format   : 2 (position and velocity)
Reference frame : Ecliptic of J2000.0
*******************************************************************************
Initial IAU76/J2000 heliocentric ecliptic osculating elements (au, days, deg.):
  EPOCH=  2456062.5 ! 2012-May-15.00 (TDB)         Residual RMS= .33585        
   EC= .08025037071630721  QR= 2.523532946962772   TP= 2456178.1992730652      
   OM= 169.0639787469435   W=  108.8375588231029   IN= 4.657718733807474       
  Equivalent ICRF heliocentric equatorial cartesian coordinates (au, au/d):
   X=-9.311309230445932E-01  Y=-2.248820770028030E+00  Z=-7.532834541844069E-01
  VX= 1.052472719645792E-02 VY=-3.441772624111693E-03 VZ=-1.347448180223588E-03
Asteroid physical parameters (km, seconds, rotational period in hours):        
   GM= n.a.                RAD= 24.209             ROTPER= 3.968               
   H= 8.8                  G= .330                 B-V= .705                   
                           ALBEDO= .182            STYP= X                     
*******************************************************************************
            JDTDB,            Calendar Date (TDB),        delta-T,                      X,                      Y,                      Z,                     VX,                     VY,                     VZ,
******************************************************************************************************************************************************************************************************************
$$SOE
2446140.500000000, A.D. 1985-Mar-16 00:00:00.0000,      54.185595, -5.402993991099514E-01, -2.463820951693260E+00,  2.057076939001501E-01,  1.098507625243551E-02, -2.091939029089412E-03,  4.475375636148075E-06,
2446145.500000000, A.D. 1985-Mar-21 00:00:00.0000,      54.185636, -4.852559529456138E-01, -2.473721072822349E+00,  2.056835299715447E-01,  1.103148557844175E-02, -1.867895762948431E-03, -1.414598535273379E-05,
2446150.500000000, A.D. 1985-Mar-26 00:00:00.0000,      54.185664, -4.299927443665459E-01, -2.482497873021833E+00,  2.055661921976783E-01,  1.107297439683370E-02, -1.642630772182664E-03, -3.279245297365861E-05,
2446155.500000000, A.D. 1985-Mar-31 00:00:00.0000,      54.185679, -3.745344752884424E-01, -2.490145546759785E+00,  2.053555807534017E-01,  1.110950354814265E-02, -1.416265562555415E-03, -5.145373127464044E-05,
2446160.500000000, A.D. 1985-Apr-05 00:00:00.0000,      54.185680, -3.189060344863983E-01, -2.496658899967577E+00,  2.050516474752125E-01,  1.114103746074227E-02, -1.188923192526721E-03, -7.011945342184307E-05,
2446165.500000000, A.D. 1985-Apr-10 00:00:00.0000,      54.185668, -2.631324794703202E-01, -2.502033357483509E+00,  2.046543961873908E-01,  1.116754422407211E-02, -9.607281446388390E-04, -8.877919304397894E-05,
2446170.500000000, A.D. 1985-Apr-15 00:00:00.0000,      54.185645, -2.072390180083210E-01, -2.506264969843496E+00,  2.041638829709113E-01,  1.118899565618091E-02, -7.318061929980677E-04, -1.074224757731016E-04,
2446175.500000000, A.D. 1985-Apr-20 00:00:00.0000,      54.185612, -1.512509893271256E-01, -2.509350419400019E+00,  2.035802163742165E-01,  1.120536736533382E-02, -5.022842671540013E-04, -1.260387909533801E-04,
2446180.500000000, A.D. 1985-Apr-25 00:00:00.0000,      54.185567, -9.519384501985399E-02, -2.511287025752089E+00,  2.029035575650862E-01,  1.121663880540884E-02, -2.722903126703816E-04, -1.446176034928449E-04,
2446185.500000000, A.D. 1985-Apr-30 00:00:00.0000,      54.185509, -3.909312969287972E-02, -2.512072750470353E+00,  2.021341204229115E-01,  1.122279332483298E-02, -4.195314865140013E-05, -1.631483658462353E-04,
2446190.500000000, A.D. 1985-May-05 00:00:00.0000,      54.185440,  1.702553861541320E-02, -2.511706201102767E+00,  2.012721715707452E-01,  1.122381820885623E-02,  1.885976775082587E-04, -1.816205301218956E-04,
2446195.500000000, A.D. 1985-May-10 00:00:00.0000,      54.185359,  7.313648821022425E-02, -2.510186634447711E+00,  2.003180303465404E-01,  1.121970471498882E-02,  4.192320378393595E-04, -2.000235602936366E-04,
2446200.500000000, A.D. 1985-May-15 00:00:00.0000,      54.185271,  1.292140136756318E-01, -2.507513959083050E+00,  1.992720687131342E-01,  1.121044810141072E-02,  6.498193736592144E-04, -2.183469444864556E-04,
2446205.500000000, A.D. 1985-May-20 00:00:00.0000,      54.185175,  1.852323959339925E-01, -2.503688737141063E+00,  1.981347111066584E-01,  1.119604764818532E-02,  8.802288473233027E-04, -2.365802073195521E-04,
2446210.500000000, A.D. 1985-May-25 00:00:00.0000,      54.185070,  2.411659223933038E-01, -2.498712185320315E+00,  1.969064342230765E-01,  1.117650667123673E-02,  1.110329495660183E-03, -2.547129223157291E-04,
2446215.500000000, A.D. 1985-May-30 00:00:00.0000,      54.184956,  2.969889071466349E-01, -2.492586175126798E+00,  1.955877667424938E-01,  1.115183252923811E-02,  1.339990384755401E-03, -2.727347243792656E-04,
2446220.500000000, A.D. 1985-Jun-04 00:00:00.0000,      54.184835,  3.526757111886908E-01, -2.485313232338906E+00,  1.941792889909918E-01,  1.112203662359999E-02,  1.569080765514215E-03, -2.906353222958721E-04,
2446225.500000000, A.D. 1985-Jun-09 00:00:00.0000,      54.184707,  4.082007626152198E-01, -2.476896535694164E+00,  1.926816325400953E-01,  1.108713439160880E-02,  1.797470229291675E-03, -3.084045111639308E-04,
2446230.500000000, A.D. 1985-Jun-14 00:00:00.0000,      54.184576,  4.635385767707249E-01, -2.467339914798817E+00,  1.910954797444171E-01,  1.104714529258365E-02,  2.025028863039915E-03, -3.260321846844760E-04,
2446235.500000000, A.D. 1985-Jun-19 00:00:00.0000,      54.184443,  5.186637763092675E-01, -2.456647847263781E+00,  1.894215632182982E-01,  1.100209278694896E-02,  2.251627403537391E-03, -3.435083472621772E-04,
2446240.500000000, A.D. 1985-Jun-24 00:00:00.0000,      54.184306,  5.735511111328221E-01, -2.444825455073004E+00,  1.876606652525866E-01,  1.095200430816355E-02,  2.477137390078773E-03, -3.608231258338314E-04,
2446245.500000000, A.D. 1985-Jun-29 00:00:00.0000,      54.184165,  6.281754781710736E-01, -2.431878500193360E+00,  1.858136171731045E-01,  1.089691122733848E-02,  2.701431315132376E-03, -3.779667813600310E-04,
2446250.500000000, A.D. 1985-Jul-04 00:00:00.0000,      55.184022,  6.825119409658071E-01, -2.417813379436514E+00,  1.838812986424656E-01,  1.083684881046392E-02,  2.924382772901960E-03, -3.949297200032668E-04,
2446255.500000000, A.D. 1985-Jul-09 00:00:00.0000,      55.183879,  7.365357490232826E-01, -2.402637118583150E+00,  1.818646369066838E-01,  1.077185616842492E-02,  3.145866605811699E-03, -4.117025040392856E-04,
2446260.500000000, A.D. 1985-Jul-14 00:00:00.0000,      55.183739,  7.902223568993580E-01, -2.386357365780286E+00,  1.797646059878572E-01,  1.070197620014765E-02,  3.365759048734823E-03, -4.282758625101627E-04,
2446265.500000000, A.D. 1985-Jul-19 00:00:00.0000,      55.183601,  8.435474429839408E-01, -2.368982384223870E+00,  1.775822258243104E-01,  1.062725552924048E-02,  3.583937870581547E-03, -4.446407015835915E-04,
2446270.500000000, A.D. 1985-Jul-24 00:00:00.0000,      55.183466,  8.964869279530207E-01, -2.350521044141009E+00,  1.753185613597746E-01,  1.054774443443006E-02,  3.800282512767574E-03, -4.607881145654644E-04,
2446275.500000000, A.D. 1985-Jul-29 00:00:00.0000,      55.183334,  9.490169928578508E-01, -2.330982814088673E+00,  1.729747215834786E-01,  1.046349677401468E-02,  4.014674224091946E-03, -4.767093915205801E-04,
